{
  "type": "FeatureCollection",
  "features": [
    {
      "type": "Feature",
      "geometry": {
        "type": "LineString",
        "coordinates": [
          [
            7.07284,
            46.54393
          ],
          [
            7.072476,
            46.543509
          ],
          [
            7.073269,
            46.543045
          ],
          [
            7.07403,
            46.54258
          ],
          [
            7.076367,
            46.544629
          ],
          [
            7.07652,
            46.544691
          ],
          [
            7.076783,
            46.544869
          ],
          [
            7.077094,
            46.545144
          ],
          [
            7.077199,
            46.545299
          ],
          [
            7.077255,
            46.54555
          ],
          [
            7.077274,
            46.545904
          ],
          [
            7.077478,
            46.546465
          ],
          [
            7.077589,
            46.54662
          ],
          [
            7.078039,
            46.546781
          ],
          [
            7.078145,
            46.546858
          ],
          [
            7.078327,
            46.54681
          ],
          [
            7.079008,
            46.546636
          ],
          [
            7.07922,
            46.546669
          ],
          [
            7.079724,
            46.546598
          ],
          [
            7.079635,
            46.54637
          ],
          [
            7.079857,
            46.546283
          ],
          [
            7.079941,
            46.54625
          ],
          [
            7.08034,
            46.545937
          ],
          [
            7.081523,
            46.544962
          ],
          [
            7.081802,
            46.544758
          ],
          [
            7.082888,
            46.544108
          ],
          [
            7.083414,
            46.543753
          ],
          [
            7.083489,
            46.543697
          ],
          [
            7.084031,
            46.543302
          ],
          [
            7.084817,
            46.542915
          ],
          [
            7.085276,
            46.542698
          ],
          [
            7.085692,
            46.542492
          ],
          [
            7.085814,
            46.542349
          ],
          [
            7.08614,
            46.541776
          ],
          [
            7.08633,
            46.541517
          ],
          [
            7.086548,
            46.541359
          ],
          [
            7.087024,
            46.541227
          ],
          [
            7.08693,
            46.541009
          ],
          [
            7.086867,
            46.540248
          ],
          [
            7.086828,
            46.540136
          ],
          [
            7.086761,
            46.540077
          ],
          [
            7.086904,
            46.539994
          ],
          [
            7.087074,
            46.539964
          ],
          [
            7.087331,
            46.539954
          ],
          [
            7.087557,
            46.539898
          ],
          [
            7.087782,
            46.539773
          ],
          [
            7.087957,
            46.539611
          ],
          [
            7.088147,
            46.539377
          ],
          [
            7.088484,
            46.53891
          ],
          [
            7.088839,
            46.538418
          ],
          [
            7.089013,
            46.538131
          ],
          [
            7.089113,
            46.537896
          ],
          [
            7.089125,
            46.537773
          ],
          [
            7.088997,
            46.537464
          ],
          [
            7.089397,
            46.537228
          ],
          [
            7.089528,
            46.537192
          ],
          [
            7.08966,
            46.537189
          ],
          [
            7.089941,
            46.537249
          ],
          [
            7.090081,
            46.537296
          ],
          [
            7.09051,
            46.537544
          ],
          [
            7.091112,
            46.537773
          ],
          [
            7.091126,
            46.537659
          ],
          [
            7.09084,
            46.537557
          ],
          [
            7.090968,
            46.537551
          ],
          [
            7.091166,
            46.537581
          ],
          [
            7.09138,
            46.537629
          ],
          [
            7.091508,
            46.537694
          ],
          [
            7.091583,
            46.537698
          ],
          [
            7.091646,
            46.537643
          ],
          [
            7.091628,
            46.537594
          ],
          [
            7.091444,
            46.537429
          ],
          [
            7.091232,
            46.537017
          ],
          [
            7.091064,
            46.536878
          ],
          [
            7.091007,
            46.536761
          ],
          [
            7.090715,
            46.536499
          ],
          [
            7.090534,
            46.536259
          ],
          [
            7.090533,
            46.53611
          ],
          [
            7.090573,
            46.536029
          ],
          [
            7.090598,
            46.536073
          ],
          [
            7.090812,
            46.536051
          ],
          [
            7.091015,
            46.53614
          ],
          [
            7.091477,
            46.536463
          ],
          [
            7.091506,
            46.536568
          ],
          [
            7.091541,
            46.536567
          ],
          [
            7.091644,
            46.536448
          ],
          [
            7.09131,
            46.535871
          ],
          [
            7.091199,
            46.535739
          ],
          [
            7.09104,
            46.535609
          ],
          [
            7.091029,
            46.535554
          ],
          [
            7.091088,
            46.535518
          ],
          [
            7.091222,
            46.535538
          ],
          [
            7.091919,
            46.535971
          ],
          [
            7.092196,
            46.53618
          ],
          [
            7.092446,
            46.536493
          ],
          [
            7.092511,
            46.536524
          ],
          [
            7.092584,
            46.536516
          ],
          [
            7.092611,
            46.53645
          ],
          [
            7.09248,
            46.536214
          ],
          [
            7.092496,
            46.536063
          ],
          [
            7.092764,
            46.53553
          ],
          [
            7.092765,
            46.535416
          ],
          [
            7.092674,
            46.535252
          ],
          [
            7.092217,
            46.534825
          ],
          [
            7.092118,
            46.534679
          ],
          [
            7.092094,
            46.534554
          ],
          [
            7.092156,
            46.53404
          ],
          [
            7.092157,
            46.533876
          ],
          [
            7.092087,
            46.533649
          ],
          [
            7.091915,
            46.533301
          ],
          [
            7.091902,
            46.533228
          ],
          [
            7.09193,
            46.533152
          ],
          [
            7.092123,
            46.532893
          ],
          [
            7.092216,
            46.532448
          ],
          [
            7.092307,
            46.532286
          ],
          [
            7.092428,
            46.532227
          ],
          [
            7.092696,
            46.532206
          ],
          [
            7.092845,
            46.532171
          ],
          [
            7.093496,
            46.531884
          ],
          [
            7.093613,
            46.531789
          ],
          [
            7.093822,
            46.531479
          ],
          [
            7.093854,
            46.531411
          ],
          [
            7.093924,
            46.531213
          ],
          [
            7.094462,
            46.53122
          ],
          [
            7.094602,
            46.53124
          ],
          [
            7.094748,
            46.531285
          ],
          [
            7.09508,
            46.531457
          ],
          [
            7.095169,
            46.531456
          ],
          [
            7.095551,
            46.531345
          ],
          [
            7.095782,
            46.531365
          ],
          [
            7.096206,
            46.531478
          ],
          [
            7.096322,
            46.531489
          ],
          [
            7.097264,
            46.531406
          ],
          [
            7.097723,
            46.531435
          ],
          [
            7.097809,
            46.531458
          ],
          [
            7.098037,
            46.531468
          ],
          [
            7.098401,
            46.531422
          ],
          [
            7.098581,
            46.531428
          ],
          [
            7.098787,
            46.531477
          ],
          [
            7.099318,
            46.531794
          ],
          [
            7.09952,
            46.53184
          ],
          [
            7.099654,
            46.531837
          ],
          [
            7.10009,
            46.53172
          ],
          [
            7.100274,
            46.53164
          ],
          [
            7.100514,
            46.53157
          ],
          [
            7.100892,
            46.531382
          ],
          [
            7.100991,
            46.531372
          ],
          [
            7.10135,
            46.531416
          ],
          [
            7.101949,
            46.531192
          ],
          [
            7.10206,
            46.531153
          ],
          [
            7.102248,
            46.531131
          ],
          [
            7.102862,
            46.531149
          ],
          [
            7.103472,
            46.531274
          ],
          [
            7.103515,
            46.531301
          ],
          [
            7.103573,
            46.531364
          ],
          [
            7.103724,
            46.53145
          ],
          [
            7.104189,
            46.531631
          ],
          [
            7.10506,
            46.53221
          ],
          [
            7.105562,
            46.532418
          ],
          [
            7.10588,
            46.532649
          ],
          [
            7.106439,
            46.532917
          ],
          [
            7.106792,
            46.533119
          ],
          [
            7.107028,
            46.533308
          ],
          [
            7.107345,
            46.53329
          ],
          [
            7.107488,
            46.533327
          ],
          [
            7.107749,
            46.533664
          ],
          [
            7.108829,
            46.534383
          ],
          [
            7.109113,
            46.53447
          ],
          [
            7.109269,
            46.534667
          ],
          [
            7.109351,
            46.534715
          ],
          [
            7.109455,
            46.534739
          ],
          [
            7.109612,
            46.534738
          ],
          [
            7.109867,
            46.534823
          ],
          [
            7.110435,
            46.535072
          ],
          [
            7.110518,
            46.535143
          ],
          [
            7.110811,
            46.535208
          ],
          [
            7.111032,
            46.535345
          ],
          [
            7.111265,
            46.535547
          ],
          [
            7.111701,
            46.535653
          ],
          [
            7.112033,
            46.535667
          ],
          [
            7.112515,
            46.535845
          ],
          [
            7.113228,
            46.535861
          ],
          [
            7.114146,
            46.535998
          ],
          [
            7.114308,
            46.536069
          ],
          [
            7.114389,
            46.536061
          ],
          [
            7.114502,
            46.53597
          ],
          [
            7.11459,
            46.536059
          ],
          [
            7.114627,
            46.536157
          ],
          [
            7.114783,
            46.53615
          ],
          [
            7.115789,
            46.535997
          ],
          [
            7.116475,
            46.535836
          ],
          [
            7.116976,
            46.535823
          ],
          [
            7.117112,
            46.535797
          ],
          [
            7.117359,
            46.53567
          ],
          [
            7.117683,
            46.535595
          ],
          [
            7.117991,
            46.535465
          ],
          [
            7.118079,
            46.535414
          ],
          [
            7.118128,
            46.53535
          ],
          [
            7.118188,
            46.53522
          ],
          [
            7.11835,
            46.535128
          ],
          [
            7.118742,
            46.535059
          ],
          [
            7.119333,
            46.534872
          ],
          [
            7.119513,
            46.534765
          ],
          [
            7.119638,
            46.534757
          ],
          [
            7.119995,
            46.534635
          ],
          [
            7.120277,
            46.534599
          ],
          [
            7.120536,
            46.534626
          ],
          [
            7.120827,
            46.53478
          ],
          [
            7.120993,
            46.534759
          ],
          [
            7.121132,
            46.534807
          ],
          [
            7.1213,
            46.534784
          ],
          [
            7.121638,
            46.534804
          ],
          [
            7.122404,
            46.534623
          ],
          [
            7.12285,
            46.534613
          ],
          [
            7.12304,
            46.534504
          ],
          [
            7.123534,
            46.534361
          ],
          [
            7.12372,
            46.534345
          ],
          [
            7.1243,
            46.534372
          ],
          [
            7.124692,
            46.534326
          ],
          [
            7.124765,
            46.534378
          ],
          [
            7.124668,
            46.534708
          ],
          [
            7.124739,
            46.534859
          ],
          [
            7.125323,
            46.535198
          ],
          [
            7.125633,
            46.53527
          ],
          [
            7.126224,
            46.53516
          ],
          [
            7.126535,
            46.535027
          ],
          [
            7.126766,
            46.534982
          ],
          [
            7.126724,
            46.534893
          ],
          [
            7.126948,
            46.534844
          ],
          [
            7.127117,
            46.534723
          ],
          [
            7.127165,
            46.53459
          ],
          [
            7.127258,
            46.534505
          ],
          [
            7.127192,
            46.534388
          ],
          [
            7.127431,
            46.534283
          ],
          [
            7.127481,
            46.534296
          ],
          [
            7.127377,
            46.534352
          ],
          [
            7.127342,
            46.534454
          ],
          [
            7.127494,
            46.534367
          ],
          [
            7.127531,
            46.534194
          ],
          [
            7.127834,
            46.533958
          ],
          [
            7.127981,
            46.533463
          ],
          [
            7.127844,
            46.533408
          ],
          [
            7.127961,
            46.533375
          ],
          [
            7.127957,
            46.533306
          ],
          [
            7.127838,
            46.533255
          ],
          [
            7.127631,
            46.532918
          ],
          [
            7.127644,
            46.53288
          ],
          [
            7.127727,
            46.532907
          ],
          [
            7.127796,
            46.532978
          ],
          [
            7.127842,
            46.533084
          ],
          [
            7.128341,
            46.533204
          ],
          [
            7.128419,
            46.533161
          ],
          [
            7.128499,
            46.533176
          ],
          [
            7.128594,
            46.5331
          ],
          [
            7.128518,
            46.533024
          ],
          [
            7.128455,
            46.533002
          ],
          [
            7.128451,
            46.532924
          ],
          [
            7.1283,
            46.532871
          ],
          [
            7.128212,
            46.532651
          ],
          [
            7.128261,
            46.532565
          ],
          [
            7.128363,
            46.532539
          ],
          [
            7.128429,
            46.532572
          ],
          [
            7.128507,
            46.53257
          ],
          [
            7.128827,
            46.532437
          ],
          [
            7.129007,
            46.532429
          ],
          [
            7.129062,
            46.532348
          ],
          [
            7.129267,
            46.532375
          ],
          [
            7.129352,
            46.532364
          ],
          [
            7.129505,
            46.532307
          ],
          [
            7.129673,
            46.532289
          ],
          [
            7.129684,
            46.532262
          ],
          [
            7.129843,
            46.532258
          ],
          [
            7.129978,
            46.532206
          ],
          [
            7.130086,
            46.532273
          ],
          [
            7.1301,
            46.532336
          ],
          [
            7.130371,
            46.532403
          ],
          [
            7.130503,
            46.532309
          ],
          [
            7.130631,
            46.532394
          ],
          [
            7.130825,
            46.532371
          ],
          [
            7.130877,
            46.532437
          ],
          [
            7.131126,
            46.532358
          ],
          [
            7.131109,
            46.532336
          ],
          [
            7.131184,
            46.532378
          ],
          [
            7.131305,
            46.532381
          ],
          [
            7.131283,
            46.532415
          ],
          [
            7.131384,
            46.532428
          ],
          [
            7.131415,
            46.532482
          ],
          [
            7.131459,
            46.532468
          ],
          [
            7.131541,
            46.532483
          ],
          [
            7.131524,
            46.53253
          ],
          [
            7.131609,
            46.532533
          ],
          [
            7.131581,
            46.532577
          ],
          [
            7.131629,
            46.532562
          ],
          [
            7.131624,
            46.532614
          ],
          [
            7.13169,
            46.532595
          ],
          [
            7.13177,
            46.532652
          ],
          [
            7.131903,
            46.532869
          ],
          [
            7.132038,
            46.532916
          ],
          [
            7.132173,
            46.532924
          ],
          [
            7.13227,
            46.532931
          ],
          [
            7.132237,
            46.533033
          ],
          [
            7.13232,
            46.53313
          ],
          [
            7.132578,
            46.533032
          ],
          [
            7.13264,
            46.533068
          ],
          [
            7.132658,
            46.533109
          ],
          [
            7.132781,
            46.533157
          ],
          [
            7.133056,
            46.533172
          ],
          [
            7.133112,
            46.533149
          ],
          [
            7.133325,
            46.533136
          ],
          [
            7.133616,
            46.533185
          ],
          [
            7.134025,
            46.533253
          ],
          [
            7.134282,
            46.533241
          ],
          [
            7.134372,
            46.533214
          ],
          [
            7.134679,
            46.533267
          ],
          [
            7.135035,
            46.533151
          ],
          [
            7.135306,
            46.533115
          ],
          [
            7.135718,
            46.532951
          ],
          [
            7.135906,
            46.532924
          ],
          [
            7.136321,
            46.532744
          ],
          [
            7.13647,
            46.532733
          ],
          [
            7.136594,
            46.532642
          ],
          [
            7.136759,
            46.53263
          ],
          [
            7.136937,
            46.532568
          ],
          [
            7.137098,
            46.532407
          ],
          [
            7.137203,
            46.53236
          ],
          [
            7.137298,
            46.532269
          ],
          [
            7.137468,
            46.532214
          ],
          [
            7.137554,
            46.532139
          ],
          [
            7.137618,
            46.532041
          ],
          [
            7.137613,
            46.531892
          ],
          [
            7.137823,
            46.531783
          ],
          [
            7.137908,
            46.531703
          ],
          [
            7.137952,
            46.531611
          ],
          [
            7.138019,
            46.531635
          ],
          [
            7.138056,
            46.531596
          ],
          [
            7.138243,
            46.531633
          ],
          [
            7.138305,
            46.531607
          ],
          [
            7.138452,
            46.531599
          ],
          [
            7.13853,
            46.531541
          ],
          [
            7.138576,
            46.531411
          ],
          [
            7.138469,
            46.531274
          ],
          [
            7.138473,
            46.531143
          ],
          [
            7.13838,
            46.531077
          ],
          [
            7.138215,
            46.530798
          ],
          [
            7.138154,
            46.530604
          ],
          [
            7.138279,
            46.530412
          ],
          [
            7.138219,
            46.530204
          ],
          [
            7.138289,
            46.530118
          ],
          [
            7.138412,
            46.530076
          ],
          [
            7.138511,
            46.529952
          ],
          [
            7.138494,
            46.529733
          ],
          [
            7.138631,
            46.529554
          ],
          [
            7.13875,
            46.529471
          ],
          [
            7.138787,
            46.529412
          ],
          [
            7.138787,
            46.52931
          ],
          [
            7.138883,
            46.529235
          ],
          [
            7.138928,
            46.529121
          ],
          [
            7.138862,
            46.529011
          ],
          [
            7.138766,
            46.528951
          ],
          [
            7.138774,
            46.528913
          ],
          [
            7.138659,
            46.528825
          ],
          [
            7.138712,
            46.528753
          ],
          [
            7.138623,
            46.528671
          ],
          [
            7.138697,
            46.528542
          ],
          [
            7.138816,
            46.528521
          ],
          [
            7.138904,
            46.528437
          ],
          [
            7.13886,
            46.528343
          ],
          [
            7.138869,
            46.528263
          ],
          [
            7.138914,
            46.52821
          ],
          [
            7.138884,
            46.528092
          ],
          [
            7.138953,
            46.528042
          ],
          [
            7.138907,
            46.528008
          ],
          [
            7.139058,
            46.527904
          ],
          [
            7.138943,
            46.527805
          ],
          [
            7.138982,
            46.527771
          ],
          [
            7.138432,
            46.52739
          ],
          [
            7.138501,
            46.527377
          ],
          [
            7.138471,
            46.5273
          ],
          [
            7.13858,
            46.527248
          ],
          [
            7.138434,
            46.527153
          ],
          [
            7.138388,
            46.527085
          ],
          [
            7.138504,
            46.527053
          ],
          [
            7.138488,
            46.527015
          ],
          [
            7.138259,
            46.526845
          ],
          [
            7.138538,
            46.526792
          ],
          [
            7.138556,
            46.526766
          ],
          [
            7.138421,
            46.526641
          ],
          [
            7.138585,
            46.526609
          ],
          [
            7.138591,
            46.526578
          ],
          [
            7.138388,
            46.526418
          ],
          [
            7.138335,
            46.526297
          ],
          [
            7.138338,
            46.526228
          ],
          [
            7.138455,
            46.526246
          ],
          [
            7.138727,
            46.526194
          ],
          [
            7.138593,
            46.52606
          ],
          [
            7.138663,
            46.526033
          ],
          [
            7.13881,
            46.526034
          ],
          [
            7.138773,
            46.525999
          ],
          [
            7.138861,
            46.52599
          ],
          [
            7.138826,
            46.525951
          ],
          [
            7.138887,
            46.525945
          ],
          [
            7.138845,
            46.525895
          ],
          [
            7.138874,
            46.525841
          ],
          [
            7.138844,
            46.525795
          ],
          [
            7.138863,
            46.525779
          ],
          [
            7.139104,
            46.52579
          ],
          [
            7.139172,
            46.525836
          ],
          [
            7.139204,
            46.525824
          ],
          [
            7.139413,
            46.525887
          ],
          [
            7.139411,
            46.525715
          ],
          [
            7.139545,
            46.525731
          ],
          [
            7.139573,
            46.52565
          ],
          [
            7.13966,
            46.525676
          ],
          [
            7.139682,
            46.52563
          ],
          [
            7.139654,
            46.525463
          ],
          [
            7.139778,
            46.525507
          ],
          [
            7.139827,
            46.525502
          ],
          [
            7.14005,
            46.525644
          ],
          [
            7.140019,
            46.525373
          ],
          [
            7.14006,
            46.525217
          ],
          [
            7.140266,
            46.525338
          ],
          [
            7.140254,
            46.525181
          ],
          [
            7.140276,
            46.525143
          ],
          [
            7.140382,
            46.525217
          ],
          [
            7.140499,
            46.52526
          ],
          [
            7.140504,
            46.525148
          ],
          [
            7.140588,
            46.525204
          ],
          [
            7.140593,
            46.525138
          ],
          [
            7.140624,
            46.525161
          ],
          [
            7.140887,
            46.525151
          ],
          [
            7.140867,
            46.525052
          ],
          [
            7.141127,
            46.52497
          ],
          [
            7.141337,
            46.525023
          ],
          [
            7.14147,
            46.525026
          ],
          [
            7.141878,
            46.52514
          ],
          [
            7.141929,
            46.525138
          ],
          [
            7.141993,
            46.525174
          ],
          [
            7.142066,
            46.525163
          ],
          [
            7.142322,
            46.525255
          ],
          [
            7.142348,
            46.525217
          ],
          [
            7.142637,
            46.525288
          ],
          [
            7.142733,
            46.525204
          ],
          [
            7.142703,
            46.525153
          ],
          [
            7.142764,
            46.525125
          ],
          [
            7.142784,
            46.525077
          ],
          [
            7.142822,
            46.525075
          ],
          [
            7.142832,
            46.525014
          ],
          [
            7.143,
            46.524947
          ],
          [
            7.143157,
            46.524965
          ],
          [
            7.143272,
            46.525003
          ],
          [
            7.143357,
            46.524999
          ],
          [
            7.143739,
            46.525125
          ],
          [
            7.143937,
            46.525161
          ],
          [
            7.144081,
            46.525255
          ],
          [
            7.144256,
            46.525253
          ],
          [
            7.144369,
            46.525334
          ],
          [
            7.144457,
            46.525458
          ],
          [
            7.144472,
            46.525365
          ],
          [
            7.144343,
            46.525158
          ],
          [
            7.144289,
            46.52497
          ],
          [
            7.144319,
            46.524707
          ],
          [
            7.144488,
            46.524465
          ],
          [
            7.144311,
            46.523727
          ],
          [
            7.14355,
            46.522632
          ],
          [
            7.143617,
            46.522396
          ],
          [
            7.143123,
            46.522134
          ],
          [
            7.143028,
            46.522056
          ],
          [
            7.143031,
            46.521994
          ],
          [
            7.143471,
            46.522109
          ],
          [
            7.143128,
            46.521907
          ],
          [
            7.143471,
            46.522109
          ],
          [
            7.143031,
            46.521994
          ],
          [
            7.143028,
            46.522056
          ],
          [
            7.143123,
            46.522134
          ],
          [
            7.143617,
            46.522396
          ],
          [
            7.14355,
            46.522632
          ],
          [
            7.144311,
            46.523727
          ],
          [
            7.144488,
            46.524465
          ],
          [
            7.144319,
            46.524707
          ],
          [
            7.144289,
            46.52497
          ],
          [
            7.144343,
            46.525158
          ],
          [
            7.144472,
            46.525365
          ],
          [
            7.144457,
            46.525458
          ],
          [
            7.144505,
            46.525612
          ],
          [
            7.144477,
            46.525953
          ],
          [
            7.144517,
            46.526104
          ],
          [
            7.144661,
            46.526385
          ],
          [
            7.144962,
            46.526743
          ],
          [
            7.145167,
            46.526932
          ],
          [
            7.145351,
            46.527006
          ],
          [
            7.145806,
            46.527099
          ],
          [
            7.146389,
            46.52728
          ],
          [
            7.146504,
            46.527304
          ],
          [
            7.146526,
            46.527285
          ],
          [
            7.146621,
            46.527281
          ],
          [
            7.146782,
            46.527343
          ],
          [
            7.146985,
            46.527393
          ],
          [
            7.147064,
            46.527393
          ],
          [
            7.14725,
            46.527468
          ],
          [
            7.147306,
            46.527467
          ],
          [
            7.147642,
            46.527608
          ],
          [
            7.147839,
            46.527653
          ],
          [
            7.148056,
            46.527793
          ],
          [
            7.14837,
            46.527911
          ],
          [
            7.148865,
            46.528221
          ],
          [
            7.148903,
            46.528277
          ],
          [
            7.14904,
            46.528341
          ],
          [
            7.149136,
            46.528446
          ],
          [
            7.149146,
            46.528513
          ],
          [
            7.148921,
            46.52853
          ],
          [
            7.148881,
            46.528558
          ],
          [
            7.148699,
            46.528518
          ],
          [
            7.148683,
            46.528522
          ],
          [
            7.148699,
            46.528518
          ],
          [
            7.148881,
            46.528558
          ],
          [
            7.148921,
            46.52853
          ],
          [
            7.149146,
            46.528513
          ],
          [
            7.149136,
            46.528446
          ],
          [
            7.14904,
            46.528341
          ],
          [
            7.148903,
            46.528277
          ],
          [
            7.148865,
            46.528221
          ],
          [
            7.14837,
            46.527911
          ],
          [
            7.148056,
            46.527793
          ],
          [
            7.147839,
            46.527653
          ],
          [
            7.147642,
            46.527608
          ],
          [
            7.147306,
            46.527467
          ],
          [
            7.14725,
            46.527468
          ],
          [
            7.147064,
            46.527393
          ],
          [
            7.146985,
            46.527393
          ],
          [
            7.146782,
            46.527343
          ],
          [
            7.146621,
            46.527281
          ],
          [
            7.146526,
            46.527285
          ],
          [
            7.146504,
            46.527304
          ],
          [
            7.146389,
            46.52728
          ],
          [
            7.145806,
            46.527099
          ],
          [
            7.145351,
            46.527006
          ],
          [
            7.145167,
            46.526932
          ],
          [
            7.144962,
            46.526743
          ],
          [
            7.144661,
            46.526385
          ],
          [
            7.144517,
            46.526104
          ],
          [
            7.144477,
            46.525953
          ],
          [
            7.144505,
            46.525612
          ],
          [
            7.144457,
            46.525458
          ],
          [
            7.144369,
            46.525334
          ],
          [
            7.144256,
            46.525253
          ],
          [
            7.144081,
            46.525255
          ],
          [
            7.143937,
            46.525161
          ],
          [
            7.143739,
            46.525125
          ],
          [
            7.143357,
            46.524999
          ],
          [
            7.143272,
            46.525003
          ],
          [
            7.143157,
            46.524965
          ],
          [
            7.143,
            46.524947
          ],
          [
            7.142832,
            46.525014
          ],
          [
            7.142822,
            46.525075
          ],
          [
            7.142784,
            46.525077
          ],
          [
            7.142764,
            46.525125
          ],
          [
            7.142703,
            46.525153
          ],
          [
            7.142733,
            46.525204
          ],
          [
            7.142637,
            46.525288
          ],
          [
            7.142348,
            46.525217
          ],
          [
            7.142322,
            46.525255
          ],
          [
            7.142066,
            46.525163
          ],
          [
            7.141993,
            46.525174
          ],
          [
            7.141929,
            46.525138
          ],
          [
            7.141878,
            46.52514
          ],
          [
            7.14147,
            46.525026
          ],
          [
            7.141337,
            46.525023
          ],
          [
            7.141127,
            46.52497
          ],
          [
            7.140867,
            46.525052
          ],
          [
            7.140887,
            46.525151
          ],
          [
            7.140624,
            46.525161
          ],
          [
            7.140593,
            46.525138
          ],
          [
            7.140588,
            46.525204
          ],
          [
            7.140504,
            46.525148
          ],
          [
            7.140499,
            46.52526
          ],
          [
            7.140382,
            46.525217
          ],
          [
            7.140276,
            46.525143
          ],
          [
            7.140254,
            46.525181
          ],
          [
            7.140266,
            46.525338
          ],
          [
            7.14006,
            46.525217
          ],
          [
            7.140019,
            46.525373
          ],
          [
            7.14005,
            46.525644
          ],
          [
            7.139827,
            46.525502
          ],
          [
            7.139778,
            46.525507
          ],
          [
            7.139654,
            46.525463
          ],
          [
            7.139682,
            46.52563
          ],
          [
            7.13966,
            46.525676
          ],
          [
            7.139573,
            46.52565
          ],
          [
            7.139545,
            46.525731
          ],
          [
            7.139411,
            46.525715
          ],
          [
            7.139413,
            46.525887
          ],
          [
            7.139204,
            46.525824
          ],
          [
            7.139172,
            46.525836
          ],
          [
            7.139104,
            46.52579
          ],
          [
            7.138863,
            46.525779
          ],
          [
            7.138844,
            46.525795
          ],
          [
            7.138874,
            46.525841
          ],
          [
            7.138845,
            46.525895
          ],
          [
            7.138887,
            46.525945
          ],
          [
            7.138826,
            46.525951
          ],
          [
            7.138861,
            46.52599
          ],
          [
            7.138773,
            46.525999
          ],
          [
            7.13881,
            46.526034
          ],
          [
            7.138663,
            46.526033
          ],
          [
            7.138593,
            46.52606
          ],
          [
            7.138727,
            46.526194
          ],
          [
            7.138455,
            46.526246
          ],
          [
            7.138338,
            46.526228
          ],
          [
            7.138335,
            46.526297
          ],
          [
            7.138388,
            46.526418
          ],
          [
            7.138591,
            46.526578
          ],
          [
            7.138585,
            46.526609
          ],
          [
            7.138421,
            46.526641
          ],
          [
            7.138556,
            46.526766
          ],
          [
            7.138538,
            46.526792
          ],
          [
            7.138259,
            46.526845
          ],
          [
            7.138488,
            46.527015
          ],
          [
            7.138504,
            46.527053
          ],
          [
            7.138388,
            46.527085
          ],
          [
            7.138434,
            46.527153
          ],
          [
            7.13858,
            46.527248
          ],
          [
            7.138471,
            46.5273
          ],
          [
            7.138501,
            46.527377
          ],
          [
            7.138432,
            46.52739
          ],
          [
            7.138982,
            46.527771
          ],
          [
            7.138943,
            46.527805
          ],
          [
            7.139058,
            46.527904
          ],
          [
            7.138907,
            46.528008
          ],
          [
            7.138953,
            46.528042
          ],
          [
            7.138884,
            46.528092
          ],
          [
            7.138914,
            46.52821
          ],
          [
            7.138869,
            46.528263
          ],
          [
            7.13886,
            46.528343
          ],
          [
            7.138904,
            46.528437
          ],
          [
            7.138816,
            46.528521
          ],
          [
            7.138697,
            46.528542
          ],
          [
            7.138623,
            46.528671
          ],
          [
            7.138712,
            46.528753
          ],
          [
            7.138659,
            46.528825
          ],
          [
            7.138774,
            46.528913
          ],
          [
            7.138766,
            46.528951
          ],
          [
            7.138862,
            46.529011
          ],
          [
            7.138928,
            46.529121
          ],
          [
            7.138883,
            46.529235
          ],
          [
            7.138787,
            46.52931
          ],
          [
            7.138787,
            46.529412
          ],
          [
            7.13875,
            46.529471
          ],
          [
            7.138631,
            46.529554
          ],
          [
            7.138494,
            46.529733
          ],
          [
            7.138511,
            46.529952
          ],
          [
            7.138412,
            46.530076
          ],
          [
            7.138289,
            46.530118
          ],
          [
            7.138219,
            46.530204
          ],
          [
            7.138279,
            46.530412
          ],
          [
            7.138154,
            46.530604
          ],
          [
            7.138215,
            46.530798
          ],
          [
            7.13838,
            46.531077
          ],
          [
            7.138473,
            46.531143
          ],
          [
            7.138469,
            46.531274
          ],
          [
            7.138576,
            46.531411
          ],
          [
            7.13853,
            46.531541
          ],
          [
            7.138452,
            46.531599
          ],
          [
            7.138305,
            46.531607
          ],
          [
            7.138243,
            46.531633
          ],
          [
            7.138056,
            46.531596
          ],
          [
            7.138019,
            46.531635
          ],
          [
            7.137952,
            46.531611
          ],
          [
            7.137908,
            46.531703
          ],
          [
            7.137823,
            46.531783
          ],
          [
            7.137613,
            46.531892
          ],
          [
            7.137618,
            46.532041
          ],
          [
            7.137554,
            46.532139
          ],
          [
            7.137468,
            46.532214
          ],
          [
            7.137298,
            46.532269
          ],
          [
            7.137203,
            46.53236
          ],
          [
            7.137098,
            46.532407
          ],
          [
            7.136937,
            46.532568
          ],
          [
            7.136759,
            46.53263
          ],
          [
            7.136594,
            46.532642
          ],
          [
            7.13647,
            46.532733
          ],
          [
            7.136321,
            46.532744
          ],
          [
            7.135906,
            46.532924
          ],
          [
            7.135718,
            46.532951
          ],
          [
            7.135306,
            46.533115
          ],
          [
            7.135035,
            46.533151
          ],
          [
            7.134679,
            46.533267
          ],
          [
            7.134372,
            46.533214
          ],
          [
            7.134282,
            46.533241
          ],
          [
            7.134025,
            46.533253
          ],
          [
            7.133616,
            46.533185
          ],
          [
            7.133325,
            46.533136
          ],
          [
            7.133112,
            46.533149
          ],
          [
            7.133056,
            46.533172
          ],
          [
            7.132781,
            46.533157
          ],
          [
            7.132658,
            46.533109
          ],
          [
            7.13264,
            46.533068
          ],
          [
            7.132578,
            46.533032
          ],
          [
            7.13232,
            46.53313
          ],
          [
            7.132237,
            46.533033
          ],
          [
            7.13227,
            46.532931
          ],
          [
            7.132038,
            46.532916
          ],
          [
            7.131903,
            46.532869
          ],
          [
            7.13177,
            46.532652
          ],
          [
            7.13169,
            46.532595
          ],
          [
            7.131624,
            46.532614
          ],
          [
            7.131629,
            46.532562
          ],
          [
            7.131581,
            46.532577
          ],
          [
            7.131609,
            46.532533
          ],
          [
            7.131524,
            46.53253
          ],
          [
            7.131541,
            46.532483
          ],
          [
            7.131459,
            46.532468
          ],
          [
            7.131415,
            46.532482
          ],
          [
            7.131384,
            46.532428
          ],
          [
            7.131283,
            46.532415
          ],
          [
            7.131305,
            46.532381
          ],
          [
            7.131184,
            46.532378
          ],
          [
            7.131109,
            46.532336
          ],
          [
            7.131126,
            46.532358
          ],
          [
            7.130877,
            46.532437
          ],
          [
            7.130825,
            46.532371
          ],
          [
            7.130631,
            46.532394
          ],
          [
            7.130503,
            46.532309
          ],
          [
            7.130371,
            46.532403
          ],
          [
            7.1301,
            46.532336
          ],
          [
            7.130086,
            46.532273
          ],
          [
            7.129978,
            46.532206
          ],
          [
            7.129843,
            46.532258
          ],
          [
            7.129684,
            46.532262
          ],
          [
            7.129673,
            46.532289
          ],
          [
            7.129505,
            46.532307
          ],
          [
            7.129352,
            46.532364
          ],
          [
            7.129267,
            46.532375
          ],
          [
            7.129062,
            46.532348
          ],
          [
            7.129007,
            46.532429
          ],
          [
            7.128827,
            46.532437
          ],
          [
            7.128507,
            46.53257
          ],
          [
            7.128429,
            46.532572
          ],
          [
            7.128363,
            46.532539
          ],
          [
            7.128261,
            46.532565
          ],
          [
            7.128212,
            46.532651
          ],
          [
            7.1283,
            46.532871
          ],
          [
            7.128451,
            46.532924
          ],
          [
            7.128455,
            46.533002
          ],
          [
            7.128518,
            46.533024
          ],
          [
            7.128594,
            46.5331
          ],
          [
            7.128499,
            46.533176
          ],
          [
            7.128419,
            46.533161
          ],
          [
            7.128341,
            46.533204
          ],
          [
            7.127842,
            46.533084
          ],
          [
            7.127796,
            46.532978
          ],
          [
            7.127727,
            46.532907
          ],
          [
            7.127644,
            46.53288
          ],
          [
            7.127631,
            46.532918
          ],
          [
            7.127838,
            46.533255
          ],
          [
            7.127957,
            46.533306
          ],
          [
            7.127961,
            46.533375
          ],
          [
            7.127844,
            46.533408
          ],
          [
            7.127981,
            46.533463
          ],
          [
            7.127834,
            46.533958
          ],
          [
            7.127531,
            46.534194
          ],
          [
            7.127494,
            46.534367
          ],
          [
            7.127342,
            46.534454
          ],
          [
            7.127377,
            46.534352
          ],
          [
            7.127481,
            46.534296
          ],
          [
            7.127431,
            46.534283
          ],
          [
            7.127192,
            46.534388
          ],
          [
            7.127258,
            46.534505
          ],
          [
            7.127165,
            46.53459
          ],
          [
            7.127117,
            46.534723
          ],
          [
            7.126948,
            46.534844
          ],
          [
            7.126724,
            46.534893
          ],
          [
            7.126766,
            46.534982
          ],
          [
            7.126535,
            46.535027
          ],
          [
            7.126224,
            46.53516
          ],
          [
            7.125633,
            46.53527
          ],
          [
            7.125323,
            46.535198
          ],
          [
            7.124739,
            46.534859
          ],
          [
            7.124668,
            46.534708
          ],
          [
            7.124765,
            46.534378
          ],
          [
            7.124692,
            46.534326
          ],
          [
            7.1243,
            46.534372
          ],
          [
            7.12372,
            46.534345
          ],
          [
            7.123534,
            46.534361
          ],
          [
            7.12304,
            46.534504
          ],
          [
            7.12285,
            46.534613
          ],
          [
            7.122404,
            46.534623
          ],
          [
            7.121638,
            46.534804
          ],
          [
            7.1213,
            46.534784
          ],
          [
            7.121132,
            46.534807
          ],
          [
            7.120993,
            46.534759
          ],
          [
            7.120827,
            46.53478
          ],
          [
            7.120536,
            46.534626
          ],
          [
            7.120277,
            46.534599
          ],
          [
            7.119995,
            46.534635
          ],
          [
            7.119638,
            46.534757
          ],
          [
            7.119513,
            46.534765
          ],
          [
            7.119333,
            46.534872
          ],
          [
            7.118742,
            46.535059
          ],
          [
            7.11835,
            46.535128
          ],
          [
            7.118188,
            46.53522
          ],
          [
            7.118128,
            46.53535
          ],
          [
            7.118079,
            46.535414
          ],
          [
            7.117991,
            46.535465
          ],
          [
            7.117683,
            46.535595
          ],
          [
            7.117359,
            46.53567
          ],
          [
            7.117112,
            46.535797
          ],
          [
            7.116976,
            46.535823
          ],
          [
            7.116475,
            46.535836
          ],
          [
            7.115789,
            46.535997
          ],
          [
            7.114783,
            46.53615
          ],
          [
            7.114627,
            46.536157
          ],
          [
            7.11459,
            46.536059
          ],
          [
            7.114502,
            46.53597
          ],
          [
            7.114389,
            46.536061
          ],
          [
            7.114308,
            46.536069
          ],
          [
            7.114146,
            46.535998
          ],
          [
            7.113228,
            46.535861
          ],
          [
            7.112515,
            46.535845
          ],
          [
            7.112033,
            46.535667
          ],
          [
            7.111701,
            46.535653
          ],
          [
            7.111265,
            46.535547
          ],
          [
            7.111032,
            46.535345
          ],
          [
            7.110811,
            46.535208
          ],
          [
            7.110518,
            46.535143
          ],
          [
            7.110435,
            46.535072
          ],
          [
            7.109867,
            46.534823
          ],
          [
            7.109612,
            46.534738
          ],
          [
            7.109455,
            46.534739
          ],
          [
            7.109351,
            46.534715
          ],
          [
            7.109269,
            46.534667
          ],
          [
            7.109113,
            46.53447
          ],
          [
            7.108829,
            46.534383
          ],
          [
            7.107749,
            46.533664
          ],
          [
            7.107488,
            46.533327
          ],
          [
            7.107345,
            46.53329
          ],
          [
            7.107028,
            46.533308
          ],
          [
            7.106792,
            46.533119
          ],
          [
            7.106439,
            46.532917
          ],
          [
            7.10588,
            46.532649
          ],
          [
            7.105562,
            46.532418
          ],
          [
            7.10506,
            46.53221
          ],
          [
            7.104189,
            46.531631
          ],
          [
            7.103724,
            46.53145
          ],
          [
            7.103573,
            46.531364
          ],
          [
            7.103515,
            46.531301
          ],
          [
            7.103472,
            46.531274
          ],
          [
            7.102862,
            46.531149
          ],
          [
            7.102248,
            46.531131
          ],
          [
            7.10206,
            46.531153
          ],
          [
            7.101949,
            46.531192
          ],
          [
            7.10135,
            46.531416
          ],
          [
            7.100991,
            46.531372
          ],
          [
            7.100892,
            46.531382
          ],
          [
            7.100514,
            46.53157
          ],
          [
            7.100274,
            46.53164
          ],
          [
            7.10009,
            46.53172
          ],
          [
            7.099654,
            46.531837
          ],
          [
            7.09952,
            46.53184
          ],
          [
            7.099318,
            46.531794
          ],
          [
            7.098787,
            46.531477
          ],
          [
            7.098581,
            46.531428
          ],
          [
            7.098401,
            46.531422
          ],
          [
            7.098037,
            46.531468
          ],
          [
            7.097809,
            46.531458
          ],
          [
            7.097723,
            46.531435
          ],
          [
            7.097264,
            46.531406
          ],
          [
            7.096322,
            46.531489
          ],
          [
            7.096206,
            46.531478
          ],
          [
            7.095782,
            46.531365
          ],
          [
            7.095551,
            46.531345
          ],
          [
            7.095169,
            46.531456
          ],
          [
            7.09508,
            46.531457
          ],
          [
            7.094748,
            46.531285
          ],
          [
            7.094602,
            46.53124
          ],
          [
            7.094462,
            46.53122
          ],
          [
            7.093924,
            46.531213
          ],
          [
            7.093854,
            46.531411
          ],
          [
            7.093822,
            46.531479
          ],
          [
            7.093613,
            46.531789
          ],
          [
            7.093496,
            46.531884
          ],
          [
            7.092845,
            46.532171
          ],
          [
            7.092696,
            46.532206
          ],
          [
            7.092428,
            46.532227
          ],
          [
            7.092307,
            46.532286
          ],
          [
            7.092216,
            46.532448
          ],
          [
            7.092123,
            46.532893
          ],
          [
            7.09193,
            46.533152
          ],
          [
            7.091902,
            46.533228
          ],
          [
            7.091915,
            46.533301
          ],
          [
            7.092087,
            46.533649
          ],
          [
            7.092157,
            46.533876
          ],
          [
            7.092156,
            46.53404
          ],
          [
            7.092094,
            46.534554
          ],
          [
            7.092118,
            46.534679
          ],
          [
            7.092217,
            46.534825
          ],
          [
            7.092674,
            46.535252
          ],
          [
            7.092765,
            46.535416
          ],
          [
            7.092764,
            46.53553
          ],
          [
            7.092496,
            46.536063
          ],
          [
            7.09248,
            46.536214
          ],
          [
            7.092611,
            46.53645
          ],
          [
            7.092584,
            46.536516
          ],
          [
            7.092511,
            46.536524
          ],
          [
            7.092446,
            46.536493
          ],
          [
            7.092196,
            46.53618
          ],
          [
            7.091919,
            46.535971
          ],
          [
            7.091222,
            46.535538
          ],
          [
            7.091088,
            46.535518
          ],
          [
            7.091029,
            46.535554
          ],
          [
            7.09104,
            46.535609
          ],
          [
            7.091199,
            46.535739
          ],
          [
            7.09131,
            46.535871
          ],
          [
            7.091644,
            46.536448
          ],
          [
            7.091541,
            46.536567
          ],
          [
            7.091506,
            46.536568
          ],
          [
            7.091477,
            46.536463
          ],
          [
            7.091015,
            46.53614
          ],
          [
            7.090812,
            46.536051
          ],
          [
            7.090598,
            46.536073
          ],
          [
            7.090573,
            46.536029
          ],
          [
            7.090533,
            46.53611
          ],
          [
            7.090534,
            46.536259
          ],
          [
            7.090715,
            46.536499
          ],
          [
            7.091007,
            46.536761
          ],
          [
            7.091064,
            46.536878
          ],
          [
            7.091232,
            46.537017
          ],
          [
            7.091444,
            46.537429
          ],
          [
            7.091628,
            46.537594
          ],
          [
            7.091646,
            46.537643
          ],
          [
            7.091583,
            46.537698
          ],
          [
            7.091508,
            46.537694
          ],
          [
            7.09138,
            46.537629
          ],
          [
            7.091166,
            46.537581
          ],
          [
            7.090968,
            46.537551
          ],
          [
            7.09084,
            46.537557
          ],
          [
            7.091126,
            46.537659
          ],
          [
            7.091112,
            46.537773
          ],
          [
            7.09051,
            46.537544
          ],
          [
            7.090081,
            46.537296
          ],
          [
            7.089941,
            46.537249
          ],
          [
            7.08966,
            46.537189
          ],
          [
            7.089528,
            46.537192
          ],
          [
            7.089397,
            46.537228
          ],
          [
            7.088997,
            46.537464
          ],
          [
            7.089125,
            46.537773
          ],
          [
            7.089113,
            46.537896
          ],
          [
            7.089013,
            46.538131
          ],
          [
            7.088839,
            46.538418
          ],
          [
            7.088484,
            46.53891
          ],
          [
            7.088147,
            46.539377
          ],
          [
            7.087957,
            46.539611
          ],
          [
            7.087782,
            46.539773
          ],
          [
            7.087557,
            46.539898
          ],
          [
            7.087331,
            46.539954
          ],
          [
            7.087074,
            46.539964
          ],
          [
            7.086904,
            46.539994
          ],
          [
            7.086761,
            46.540077
          ],
          [
            7.086828,
            46.540136
          ],
          [
            7.086867,
            46.540248
          ],
          [
            7.08693,
            46.541009
          ],
          [
            7.087024,
            46.541227
          ],
          [
            7.086548,
            46.541359
          ],
          [
            7.08633,
            46.541517
          ],
          [
            7.08614,
            46.541776
          ],
          [
            7.085814,
            46.542349
          ],
          [
            7.085692,
            46.542492
          ],
          [
            7.085276,
            46.542698
          ],
          [
            7.084817,
            46.542915
          ],
          [
            7.084031,
            46.543302
          ],
          [
            7.083489,
            46.543697
          ],
          [
            7.083414,
            46.543753
          ],
          [
            7.082888,
            46.544108
          ],
          [
            7.081802,
            46.544758
          ],
          [
            7.081523,
            46.544962
          ],
          [
            7.08034,
            46.545937
          ],
          [
            7.079941,
            46.54625
          ],
          [
            7.079857,
            46.546283
          ],
          [
            7.079635,
            46.54637
          ],
          [
            7.079724,
            46.546598
          ],
          [
            7.07922,
            46.546669
          ],
          [
            7.079008,
            46.546636
          ],
          [
            7.078327,
            46.54681
          ],
          [
            7.078145,
            46.546858
          ],
          [
            7.078039,
            46.546781
          ],
          [
            7.077589,
            46.54662
          ],
          [
            7.077478,
            46.546465
          ],
          [
            7.077274,
            46.545904
          ],
          [
            7.077255,
            46.54555
          ],
          [
            7.077199,
            46.545299
          ],
          [
            7.077094,
            46.545144
          ],
          [
            7.076783,
            46.544869
          ],
          [
            7.07652,
            46.544691
          ],
          [
            7.076367,
            46.544629
          ],
          [
            7.07403,
            46.54258
          ],
          [
            7.073269,
            46.543045
          ],
          [
            7.072476,
            46.543509
          ],
          [
            7.07284,
            46.54393
          ]
        ]
      },
      "properties": {
        "name": "Vanil Noir et de l'\u00c9cri"
      }
    }
  ]
}